STARLETTE               
1 07646U 75010A   22217.84845301 -.00000130  00000+0  12448-4 0  9990
2 07646  49.8241 275.2498 0205768  80.7386 281.6714 13.82313151399312
LAGEOS 1                
1 08820U 76039A   22217.85813740  .00000033  00000+0  00000+0 0  9997
2 08820 109.8526  55.9160 0045103 244.2247  76.9517  6.38664830823007
AJISAI (EGS)            
1 16908U 86061A   22218.55887740 -.00000108  00000+0 -72806-4 0  9991
2 16908  50.0084 164.9710 0011234 189.7878 351.2234 12.44497073305087
COSMOS 1989 (ETALON 1)  
1 19751U 89001C   22217.77002962 -.00000006  00000+0  00000+0 0  9993
2 19751  64.3133 120.6902 0023786 213.3693 285.5690  2.13156231261286
COSMOS 2024 (ETALON 2)  
1 20026U 89039C   22217.65260493 -.00000048  00000+0  00000+0 0  9999
2 20026  65.5363 358.7176 0018491 218.4508 108.4007  2.13204257258403
LAGEOS 2                
1 22195U 92070B   22217.61665145 -.00000009  00000+0  00000+0 0  9993
2 22195  52.6598  78.7245 0138297 290.3223 259.4173  6.47293753704031
STELLA                  
1 22824U 93061B   22218.17658139 -.00000040  00000+0  28550-5 0  9991
2 22824  98.9628 240.3477 0006693  20.8323  77.3402 14.27392116503637
LARES                   
1 38077U 12006A   22218.56123930 -.00000060  00000+0 -13304-3 0  9999
2 38077  69.4908 181.7140 0011262 285.1770  74.8001 12.54931150480190
